BEIDOU-2 IGSO-1 (C06)   
1 36828U 10036A   24143.52715141 -.00000022  00000+0  00000+0 0  9990
2 36828  54.2481 169.7941 0042040 206.4494 160.5542  1.00290427 50631
BEIDOU-2 G4 (C04)       
1 37210U 10057A   24143.85224904 -.00000090  00000+0  00000+0 0  9992
2 37210   1.7852  68.4353 0002706 182.2946  97.1415  1.00272119 49715
BEIDOU-2 IGSO-2 (C07)   
1 37256U 10068A   24143.81420564 -.00000215  00000+0  00000+0 0  9999
2 37256  48.9281 281.1296 0034482 209.2285 150.4394  1.00258286 49219
BEIDOU-2 IGSO-3 (C08)   
1 37384U 11013A   24143.67458337 -.00000202  00000+0  00000+0 0  9991
2 37384  61.3159  47.3583 0026089 177.1859   7.1080  1.00265260 48083
BEIDOU-2 IGSO-4 (C09)   
1 37763U 11038A   24143.58073416  .00000071  00000+0  00000+0 0  9993
2 37763  54.5541 172.4010 0124955 228.8143 144.0756  1.00264766 47078
BEIDOU-2 IGSO-5 (C10)   
1 37948U 11073A   24143.83928265 -.00000156  00000+0  00000+0 0  9991
2 37948  49.0597 280.8138 0096842 219.1181 136.1039  1.00257668 45826
BEIDOU-2 G5 (C05)       
1 38091U 12008A   24144.11834318  .00000077  00000+0  00000+0 0  9998
2 38091   2.0155  70.6596 0007331 271.3454   0.5639  1.00275703 44904
BEIDOU-2 M3 (C11)       
1 38250U 12018A   24143.15894305 -.00000066  00000+0  00000+0 0  9990
2 38250  56.3560 330.2066 0020574 264.5191  95.2591  1.86231377 81863
BEIDOU-2 M4 (C12)       
1 38251U 12018B   24143.08925267 -.00000066  00000+0  00000+0 0  9995
2 38251  56.2634 329.4825 0011472 268.1974  91.6833  1.86232108 81866
BEIDOU-2 M6 (C14)       
1 38775U 12050B   24143.33562019 -.00000016  00000+0  00000+0 0  9997
2 38775  55.8941  88.0268 0014532 335.7003  24.1923  1.86231171 79234
BEIDOU-2 G6 (C02)       
1 38953U 12059A   24143.83486914 -.00000153  00000+0  00000+0 0  9990
2 38953   2.4958  80.6581 0010632 316.1102 228.6696  1.00268236 42331
BEIDOU-3S IGSO-1S (C31) 
1 40549U 15019A   24143.91053351 -.00000165  00000+0  00000+0 0  9990
2 40549  50.6223 304.4872 0037464 191.5898 165.0402  1.00255418 33498
BEIDOU-3S M2S (C58)     
1 40748U 15037A   24141.14193338 -.00000072  00000+0  00000+0 0  9991
2 40748  55.4972 327.9857 0007813 253.3557 106.5718  1.86233309 60006
BEIDOU-3S M1S (C57)     
1 40749U 15037B   24141.94923533 -.00000070  00000+0  00000+0 0  9996
2 40749  55.4998 327.9453 0004358   3.7494 356.2658  1.86233097 60028
BEIDOU-3S IGSO-2S (C56) 
1 40938U 15053A   24143.74602282 -.00000155  00000+0  00000+0 0  9993
2 40938  50.3993 267.7023 0051601 189.2095 148.8046  1.00268395 31772
BEIDOU-2 IGSO-6 (C13)   
1 41434U 16021A   24143.70547199 -.00000176  00000+0  00000+0 0  9995
2 41434  59.1408  45.6067 0048148 223.8413 321.4151  1.00276107 29902
BEIDOU-2 G7 (C03)       
1 41586U 16037A   24143.84232845 -.00000333  00000+0  00000+0 0  9999
2 41586   1.8467  69.3440 0009798   3.1695 222.2057  1.00274982 29212
BEIDOU-3 M1 (C19)       
1 43001U 17069A   24143.10168242 -.00000016  00000+0  00000+0 0  9995
2 43001  56.0445  88.1280 0011785 305.9397  53.9123  1.86231550 44528
BEIDOU-3 M2 (C20)       
1 43002U 17069B   24143.03886410 -.00000016  00000+0  00000+0 0  9992
2 43002  56.0437  88.1658 0009795 326.5880  33.3114  1.86231056 44515
BEIDOU-3 M7 (C27)       
1 43107U 18003A   24143.32523228 -.00000068  00000+0  00000+0 0  9991
2 43107  54.9537 328.5138 0005081  71.4742 288.5908  1.86232569 43277
BEIDOU-3 M8 (C28)       
1 43108U 18003B   24142.19154468 -.00000071  00000+0  00000+0 0  9996
2 43108  54.9476 328.5385 0002350 263.7511  96.2342  1.86231065 43265
BEIDOU-3 M4 (C22)       
1 43207U 18018A   24143.16975449 -.00000016  00000+0  00000+0 0  9999
2 43207  56.0032  88.2159 0007218 347.7339  12.2095  1.86231467 42666
BEIDOU-3 M3 (C21)       
1 43208U 18018B   24143.23632929 -.00000015  00000+0  00000+0 0  9990
2 43208  56.0028  88.2181 0009641 316.8284  43.0571  1.86231402 42665
BEIDOU-3 M9 (C29)       
1 43245U 18029A   24143.99480107 -.00000066  00000+0  00000+0 0  9991
2 43245  54.8381 326.2013 0000627  79.0396 280.9719  1.86232785 41839
BEIDOU-3 M10 (C30)      
1 43246U 18029B   24143.38757241 -.00000067  00000+0  00000+0 0  9992
2 43246  54.8352 326.2500 0004204  21.5965 338.4271  1.86232961 41803
BEIDOU-2 IGSO-7 (C16)   
1 43539U 18057A   24143.53013351 -.00000028  00000+0  00000+0 0  9999
2 43539  55.1377 169.5920 0074983 233.4092 140.6373  1.00261069 21563
BEIDOU-3 M5 (C23)       
1 43581U 18062A   24142.53635265  .00000063  00000+0  00000+0 0  9993
2 43581  54.1339 208.0424 0004418 274.2516  85.7840  1.86228880 39548
BEIDOU-3 M6 (C24)       
1 43582U 18062B   24143.47625634  .00000070  00000+0  00000+0 0  9995
2 43582  54.1336 207.9999 0004134   7.8725 352.2251  1.86229626 39567
BEIDOU-3 M12 (C26)      
1 43602U 18067A   24143.94683234  .00000074  00000+0  00000+0 0  9999
2 43602  54.2239 206.6625 0006715  20.6054 339.5159  1.86231796 39050
BEIDOU-3 M11 (C25)      
1 43603U 18067B   24143.54381351  .00000072  00000+0  00000+0 0  9999
2 43603  54.2212 206.6415 0003625   5.1607 354.9357  1.86231669 39070
BEIDOU-3 M13 (C32)      
1 43622U 18072A   24142.43054986 -.00000017  00000+0  00000+0 0  9994
2 43622  55.9735  87.7720 0008311 305.4748  54.4098  1.86231546 38566
BEIDOU-3 M14 (C33)      
1 43623U 18072B   24143.36990905 -.00000016  00000+0  00000+0 0  9997
2 43623  55.9761  87.7338 0006358 328.3320  31.5911  1.86231516 38578
BEIDOU-3 M16 (C35)      
1 43647U 18078A   24141.92197890 -.00000072  00000+0  00000+0 0  9993
2 43647  54.7357 326.3734 0007607  23.4824 336.5617  1.86232396 38055
BEIDOU-3 M15 (C34)      
1 43648U 18078B   24143.12505609 -.00000069  00000+0  00000+0 0  9995
2 43648  54.7308 326.3349 0004733  37.5208 322.5188  1.86232339 38092
BEIDOU-3 G1 (C59)       
1 43683U 18085A   24143.90327187 -.00000256  00000+0  00000+0 0  9999
2 43683   2.1297 110.5432 0004277 346.3460 249.3562  1.00271503 20483
BEIDOU-3 M17 (C36)      
1 43706U 18093A   24143.27504788  .00000069  00000+0  00000+0 0  9999
2 43706  54.2169 207.9537 0009453 279.5838  80.3996  1.86228510 37463
BEIDOU-3 M18 (C37)      
1 43707U 18093B   24143.14059398  .00000068  00000+0  00000+0 0  9997
2 43707  54.2176 207.9501 0007401 306.5149  53.5065  1.86229956 37453
BEIDOU-3 IGSO-1 (C38)   
1 44204U 19023A   24143.62905988 -.00000231  00000+0  00000+0 0  9995
2 44204  57.6054  45.4923 0018977 211.8040 327.3103  1.00257306 18763
BEIDOU-2 G8 (C01)       
1 44231U 19027A   24143.89216288 -.00000226  00000+0  00000+0 0  9990
2 44231   1.8866  73.7491 0002225 161.1450 111.8379  1.00272975 18502
BEIDOU-3 IGSO-2 (C39)   
1 44337U 19035A   24143.48293431 -.00000031  00000+0  00000+0 0  9990
2 44337  55.1737 165.4933 0033087 209.4037 155.8223  1.00249339 18093
BEIDOU-3 M24 (C46)      
1 44542U 19061A   24143.21036114  .00000068  00000+0  00000+0 0  9990
2 44542  54.4446 208.2370 0007333 346.8561  13.2145  1.86231289 31717
BEIDOU-3 M23 (C45)      
1 44543U 19061B   24143.91929650  .00000072  00000+0  00000+0 0  9999
2 44543  54.4427 208.1822 0004788 327.1276  60.4887  1.86231752 31727
BEIDOU-3 IGSO-3 (C40)   
1 44709U 19073A   24143.80595816 -.00000206  00000+0  00000+0 0  9997
2 44709  56.0945 288.9922 0038246 180.5179 179.3922  1.00257243 16867
BEIDOU-3 M22 (C44)      
1 44793U 19078A   24143.05611004 -.00000069  00000+0  00000+0 0  9997
2 44793  54.5829 326.2694 0006671  31.6670 328.3797  1.86232274 30565
BEIDOU-3 M21 (C43)      
1 44794U 19078B   24143.18596548 -.00000069  00000+0  00000+0 0  9997
2 44794  54.5562 326.2416 0004504  30.0830 329.9490  1.86232714 30573
BEIDOU-3 M19 (C41)      
1 44864U 19090A   24143.72985009 -.00000015  00000+0  00000+0 0  9994
2 44864  55.9088  87.9018 0018919 284.5627 273.0590  1.86231797 30168
BEIDOU-3 M20 (C42)      
1 44865U 19090B   24143.58313253 -.00000015  00000+0  00000+0 0  9995
2 44865  55.9103  87.9398 0016932 297.1009 251.8950  1.86231739 30143
BEIDOU-3 G2 (C60)       
1 45344U 20017A   24144.16299671 -.00000121  00000+0  00000+0 0  9999
2 45344   2.2869  28.6443 0000999  58.3871 292.9441  1.00271335 15701
BEIDOU-3 G3 (C61)       
1 45807U 20040A   24144.05713080 -.00000333  00000+0  00000+0 0  9997
2 45807   0.7376  38.9392 0004877 294.2417  39.1327  1.00271008 14513
BEIDOU-3 G4             
1 56564U 23066A   24144.13853243 -.00000089  00000+0  00000+0 0  9993
2 56564   2.1858 288.2224 0005240 192.7951 330.1795  1.00271637  3834
BEIDOU-3 M25            
1 58654U 23207A   24143.80556589 -.00000016  00000+0  00000+0 0  9998
2 58654  55.0914  87.9325 0004141 301.6890  58.2320  1.86232328  2776
BEIDOU-3 M26            
1 58655U 23207B   24143.60447767 -.00000016  00000+0  00000+0 0  9994
2 58655  55.0933  87.9246 0004581 282.9506  76.9596  1.86231947  2759
